[{"OBJECT_NAME":"ONEWEB-0561","OBJECT_ID":"2023-068A","EPOCH":"2026-03-09T15:40:49.071936","MEAN_MOTION":13.2077132,"ECCENTRICITY":0.0001237,"INCLINATION":87.9165,"RA_OF_ASC_NODE":294.3178,"ARG_OF_PERICENTER":95.0207,"MEAN_ANOMALY":265.1067,"EPHEMERIS_TYPE":0,"CLASSIFICATION_TYPE":"U","NORAD_CAT_ID":56710,"ELEMENT_SET_NO":999,"REV_AT_EPOCH":13636,"BSTAR":-0.00032387,"MEAN_MOTION_DOT":-1.19e-6,"MEAN_MOTION_DDOT":0},{"OBJECT_NAME":"COSMOS 2499 DEB","OBJECT_ID":"2014-028CD","EPOCH":"2026-03-08T05:19:31.924128","MEAN_MOTION":13.24714875,"ECCENTRICITY":0.00604069,"INCLINATION":82.2076,"RA_OF_ASC_NODE":248.8379,"ARG_OF_PERICENTER":27.7046,"MEAN_ANOMALY":332.7276,"EPHEMERIS_TYPE":0,"CLASSIFICATION_TYPE":"U","NORAD_CAT_ID":60617,"ELEMENT_SET_NO":999,"REV_AT_EPOCH":13563,"BSTAR":0.013466561,"MEAN_MOTION_DOT":5.879e-5,"MEAN_MOTION_DDOT":0}]
